MEAN_MOTION;ECCENTRICITY;INCLINATION;RA_OF_ASC_NODE;ARG_OF_PERICENTER;MEAN_ANOMALY;BSTAR;MEAN_MOTION_DOT;MEAN_MOTION_DDOT;TYPE
14.38865086;0.0002806;86.3905;66.2983;128.8682;231.2767;2.5346E-5;9.8E-7;0;Iridium
14.38865184;0.0002863;86.3906;66.0342;128.0679;232.0778;2.6433E-5;1.01E-6;0;Iridium
14.38865246;0.0002891;86.3907;65.8875;127.5994;232.5467;2.6569E-5;1.02E-6;0;Iridium
14.38865355;0.0002932;86.3908;65.6528;126.9042;233.2426;2.7126E-5;1.03E-6;0;Iridium
14.38865451;0.0002975;86.3908;65.4768;126.4519;233.6954;2.8243E-5;1.07E-6;0;Iridium
14.38865558;0.0003007;86.3909;65.2421;125.6517;234.4962;2.7891E-5;1.06E-6;0;Iridium
14.38865741;0.0003087;86.3911;64.8021;124.1607;235.9885;2.6428E-5;1.01E-6;0;Iridium
14.38865741;0.0003087;86.3911;64.8021;124.1607;235.9885;2.6428E-5;1.01E-6;0;Iridium
14.38865747;0.0003094;86.3911;64.7727;124.0491;236.1001;2.6076E-5;1.0E-6;0;Iridium
14.38865761;0.0003098;86.3911;64.7434;123.9205;236.2288;2.6334E-5;1.01E-6;0;Iridium
14.38865884;0.000317;86.3912;64.362;122.7951;237.3553;2.3127E-5;9.1E-7;0;Iridium
14.38865884;0.000317;86.3912;64.362;122.7951;237.3553;2.3127E-5;9.1E-7;0;Iridium
14.38865907;0.0003181;86.3913;64.3034;122.6123;237.5383;2.3572E-5;9.3E-7;0;Iridium
14.38866028;0.0003224;86.3914;64.01;121.7447;238.4066;2.3208E-5;9.1E-7;0;Iridium
14.38866087;0.0003262;86.3915;63.7753;120.9186;239.2333;2.0997E-5;8.5E-7;0;Iridium
14.38866213;0.0003306;86.3916;63.5406;120.182;239.9706;2.2864E-5;9.0E-7;0;Iridium
14.38866213;0.0003306;86.3916;63.5406;120.182;239.9706;2.2864E-5;9.0E-7;0;Iridium
14.38866302;0.0003332;86.3916;63.3646;119.4846;240.6685;2.3879E-5;9.3E-7;0;Iridium
14.38866464;0.0003393;86.3918;62.9246;117.9832;242.171;2.384E-5;9.3E-7;0;Iridium
14.38866593;0.0003418;86.3919;62.7193;117.2671;242.8875;2.6708E-5;1.02E-6;0;Iridium
14.38866662;0.0003442;86.392;62.5433;116.6403;243.5148;2.7601E-5;1.05E-6;0;Iridium
14.38866794;0.0003481;86.3921;62.2793;115.7138;244.442;2.9734E-5;1.11E-6;0;Iridium
14.38866794;0.0003481;86.3921;62.2793;115.7138;244.442;2.9734E-5;1.11E-6;0;Iridium
14.3886689;0.0003507;86.3922;62.1033;115.0728;245.0835;3.163E-5;1.17E-6;0;Iridium
14.38867014;0.0003538;86.3923;61.8394;113.9987;246.1582;3.2976E-5;1.21E-6;0;Iridium
14.38867092;0.0003561;86.3923;61.6634;113.4171;246.7402;3.3398E-5;1.23E-6;0;Iridium
14.38867204;0.0003578;86.3924;61.4582;112.6758;247.4819;3.541E-5;1.29E-6;0;Iridium
14.38867284;0.0003604;86.3925;61.2529;111.951;248.2072;3.4897E-5;1.27E-6;0;Iridium
14.38867383;0.0003631;86.3926;61.0183;111.1582;249.0004;3.5049E-5;1.28E-6;0;Iridium
14.38867496;0.000366;86.3927;60.813;110.434;249.7252;3.5406E-5;1.29E-6;0;Iridium
14.38867633;0.0003686;86.3928;60.5784;109.6361;250.5236;3.622E-5;1.31E-6;0;Iridium
14.38867633;0.0003686;86.3928;60.5784;109.6361;250.5236;3.622E-5;1.31E-6;0;Iridium
14.38867716;0.0003707;86.3928;60.4025;109.0539;251.1061;3.5695E-5;1.3E-6;0;Iridium
14.38867833;0.0003726;86.3929;60.1679;108.2235;251.937;3.5369E-5;1.29E-6;0;Iridium
14.38867913;0.0003744;86.393;59.992;107.5586;252.6022;3.4544E-5;1.26E-6;0;Iridium
14.38867993;0.0003768;86.3931;59.7575;106.7004;253.4608;3.2802E-5;1.21E-6;0;Iridium
14.38868076;0.0003791;86.3931;59.5522;105.9312;254.2304;3.1158E-5;1.16E-6;0;Iridium
14.3886818;0.000381;86.3933;59.3469;105.2617;254.9002;3.1065E-5;1.16E-6;0;Iridium
14.38868271;0.0003828;86.3933;59.1417;104.3999;255.7625;2.989E-5;1.12E-6;0;Iridium
14.38868345;0.000384;86.3935;58.9365;103.6203;256.5423;2.8522E-5;1.08E-6;0;Iridium
14.38868416;0.0003859;86.3935;58.7313;102.9218;257.2411;2.6792E-5;1.02E-6;0;Iridium
14.38868499;0.0003875;86.3937;58.4968;102.0828;258.0805;2.5913E-5;1.0E-6;0;Iridium
14.38868499;0.0003875;86.3937;58.4968;102.0828;258.0805;2.5913E-5;1.0E-6;0;Iridium
14.38868567;0.0003894;86.3937;58.2916;101.335;258.8286;2.4498E-5;9.5E-7;0;Iridium
14.38868638;0.0003908;86.3939;58.0863;100.6393;259.5246;2.4244E-5;9.5E-7;0;Iridium
14.38868715;0.0003924;86.3939;57.8811;99.8511;260.313;2.401E-5;9.4E-7;0;Iridium
14.38868782;0.000393;86.3941;57.6759;99.1271;261.0372;2.3839E-5;9.3E-7;0;Iridium
14.38868854;0.0003943;86.3941;57.4414;98.2545;261.9101;2.3408E-5;9.2E-7;0;Iridium
14.3886892;0.0003952;86.3942;57.2362;97.5438;262.6209;2.3766E-5;9.3E-7;0;Iridium
14.3886892;0.0003952;86.3942;57.2362;97.5438;262.6209;2.3766E-5;9.3E-7;0;Iridium
14.38868988;0.0003969;86.3943;57.0311;96.8279;263.3371;2.3558E-5;9.2E-7;0;Iridium
14.38868978;0.0003973;86.3943;57.0018;96.7544;263.4107;2.3055E-5;9.1E-7;0;Iridium
14.3886917;0.0004;86.3944;56.6208;95.4789;264.6865;2.6035E-5;1.0E-6;0;Iridium
14.38869243;0.0004008;86.3946;56.4157;94.7599;265.4057;2.6693E-5;1.02E-6;0;Iridium
14.38869243;0.0004008;86.3946;56.4157;94.7599;265.4057;2.6693E-5;1.02E-6;0;Iridium
14.38869363;0.0004021;86.3946;56.1812;93.9794;266.1864;2.892E-5;1.09E-6;0;Iridium
14.38869425;0.0004024;86.3947;55.9761;93.1203;267.0456;2.8855E-5;1.09E-6;0;Iridium
14.38869425;0.0004024;86.3947;55.9761;93.1203;267.0456;2.8855E-5;1.09E-6;0;Iridium
14.38869496;0.0004035;86.3947;55.7709;92.4158;267.7502;2.8693E-5;1.08E-6;0;Iridium
14.38869557;0.0004039;86.3948;55.5657;91.6609;268.5052;2.8701E-5;1.08E-6;0;Iridium
14.38869629;0.0004044;86.3949;55.3313;90.7864;269.3798;2.7841E-5;1.06E-6;0;Iridium
14.38869711;0.0004042;86.395;55.1554;90.1484;270.0177;2.8706E-5;1.08E-6;0;Iridium
14.3886978;0.0004043;86.395;54.921;89.3403;270.8258;2.7543E-5;1.05E-6;0;Iridium
14.38869852;0.0004042;86.3951;54.7159;88.5469;271.6192;2.7015E-5;1.03E-6;0;Iridium
14.38869852;0.0004042;86.3951;54.7159;88.5469;271.6192;2.7015E-5;1.03E-6;0;Iridium
14.38869914;0.0004047;86.3952;54.5108;87.8926;272.2736;2.5655E-5;9.9E-7;0;Iridium
14.38870058;0.0004052;86.3954;54.0713;86.3373;273.8289;2.3755E-5;9.3E-7;0;Iridium
14.38870126;0.0004047;86.3955;53.8661;85.5648;274.6013;2.2398E-5;8.9E-7;0;Iridium
14.38870126;0.0004047;86.3955;53.8661;85.5648;274.6013;2.2398E-5;8.9E-7;0;Iridium
14.38870194;0.0004047;86.3955;53.661;84.9539;275.2121;2.1519E-5;8.6E-7;0;Iridium
14.38870227;0.0004044;86.3956;53.456;84.1759;275.9901;1.917E-5;7.9E-7;0;Iridium
14.3887028;0.0004044;86.3957;53.2509;83.4723;276.6935;1.7463E-5;7.4E-7;0;Iridium
14.3887031;0.000404;86.3958;53.0458;82.6772;277.4886;1.5632E-5;6.8E-7;0;Iridium
14.38870358;0.0004037;86.3959;52.8114;81.8512;278.3145;1.3897E-5;6.3E-7;0;Iridium
14.38870464;0.0004018;86.396;52.4012;80.2541;279.9111;1.3317E-5;6.1E-7;0;Iridium
14.38870568;0.0004005;86.3961;52.0203;78.9347;281.2302;1.3905E-5;6.3E-7;0;Iridium
14.3887064;0.0003997;86.3962;51.7858;78.19;281.9747;1.5107E-5;6.6E-7;0;Iridium
14.3887064;0.0003997;86.3962;51.7858;78.19;281.9747;1.5107E-5;6.6E-7;0;Iridium
14.38870651;0.0003994;86.3963;51.5515;77.4963;282.6682;1.4001E-5;6.3E-7;0;Iridium
14.38870693;0.0003982;86.3964;51.3757;76.8243;283.34;1.4668E-5;6.5E-7;0;Iridium
14.3887079;0.0003971;86.3964;51.1413;76.0347;284.1293;1.7349E-5;7.3E-7;0;Iridium
14.3887083;0.0003957;86.3964;50.9656;75.2609;284.9028;1.7825E-5;7.5E-7;0;Iridium
14.38870886;0.0003945;86.3965;50.7312;74.4562;285.7072;1.8349E-5;7.6E-7;0;Iridium
14.38870947;0.0003934;86.3966;50.5262;73.688;286.4751;1.968E-5;8.1E-7;0;Iridium
14.38870947;0.0003934;86.3966;50.5262;73.688;286.4751;1.968E-5;8.1E-7;0;Iridium
14.38871002;0.0003919;86.3966;50.2918;72.796;287.3667;1.9811E-5;8.1E-7;0;Iridium
14.38871073;0.0003903;86.3967;50.1161;72.193;287.9694;2.1298E-5;8.6E-7;0;Iridium
14.38871073;0.0003903;86.3967;50.1161;72.193;287.9694;2.1298E-5;8.6E-7;0;Iridium
14.38871147;0.0003881;86.3967;49.8817;71.262;288.9;2.1975E-5;8.8E-7;0;Iridium
14.38871248;0.0003863;86.3967;49.706;70.6371;289.5245;2.44E-5;9.5E-7;0;Iridium
14.38871386;0.0003829;86.3968;49.3253;69.4269;290.7339;2.5163E-5;9.7E-7;0;Iridium
14.38871424;0.0003826;86.3968;49.2667;69.1282;291.0326;2.5424E-5;9.8E-7;0;Iridium
14.38871487;0.0003809;86.3969;49.0324;68.3741;291.7863;2.3842E-5;9.3E-7;0;Iridium
14.38871587;0.000379;86.3969;48.8274;67.7289;292.4311;2.4585E-5;9.6E-7;0;Iridium
14.38871638;0.0003775;86.3969;48.6809;67.2125;292.9472;2.4404E-5;9.5E-7;0;Iridium
14.38871653;0.0003768;86.3969;48.6224;66.9546;293.205;2.356E-5;9.2E-7;0;Iridium
14.38871739;0.0003747;86.397;48.4173;66.373;293.7862;2.3807E-5;9.3E-7;0;Iridium
14.38871804;0.0003728;86.397;48.2123;65.6405;294.5182;2.2673E-5;9.0E-7;0;Iridium
14.3887186;0.0003711;86.3971;47.978;64.7334;295.4249;2.1053E-5;8.5E-7;0;Iridium
14.3887186;0.0003711;86.3971;47.978;64.7334;295.4249;2.1053E-5;8.5E-7;0;Iridium
14.38871921;0.0003688;86.3971;47.773;64.0295;296.1283;1.9809E-5;8.1E-7;0;Iridium
14.38872083;0.0003645;86.3972;47.3922;62.6129;297.544;2.0469E-5;8.3E-7;0;Iridium
14.38872084;0.0003641;86.3972;47.3629;62.4904;297.6664;1.9882E-5;8.1E-7;0;Iridium
14.3887213;0.0003617;86.3973;47.1872;61.7445;298.4118;1.9182E-5;7.9E-7;0;Iridium
14.38872207;0.0003592;86.3974;46.9529;60.8287;299.327;1.8766E-5;7.8E-7;0;Iridium
14.38872276;0.000356;86.3974;46.7186;60.0376;300.1175;1.912E-5;7.9E-7;0;Iridium
14.38872276;0.000356;86.3974;46.7186;60.0376;300.1175;1.912E-5;7.9E-7;0;Iridium
14.38872319;0.0003531;86.3974;46.5135;59.5739;300.5807;1.8026E-5;7.5E-7;0;Iridium
14.38872424;0.0003504;86.3974;46.3378;58.9545;301.1997;2.0827E-5;8.4E-7;0;Iridium
14.38872472;0.000347;86.3974;46.1035;58.1288;302.0247;1.9935E-5;8.1E-7;0;Iridium
14.38872523;0.0003439;86.3975;45.9278;57.5327;302.6203;2.0408E-5;8.3E-7;0;Iridium
14.38872579;0.0003407;86.3975;45.6935;56.6397;303.5127;2.0089E-5;8.2E-7;0;Iridium
14.38872656;0.0003375;86.3975;45.4885;55.903;304.2488;2.1677E-5;8.7E-7;0;Iridium
14.38872656;0.0003375;86.3975;45.4885;55.903;304.2488;2.1677E-5;8.7E-7;0;Iridium
14.38872656;0.0003375;86.3975;45.4885;55.903;304.2488;2.1677E-5;8.7E-7;0;Iridium
14.38872716;0.0003345;86.3975;45.2835;55.2262;304.9251;2.1782E-5;8.7E-7;0;Iridium
14.38872883;0.0003285;86.3975;44.9027;53.8892;306.261;2.5021E-5;9.7E-7;0;Iridium
14.3887291;0.0003274;86.3975;44.8442;53.8075;306.3426;2.522E-5;9.8E-7;0;Iridium
14.38873008;0.0003242;86.3975;44.6685;53.1966;306.9529;2.699E-5;1.03E-6;0;Iridium
14.38873121;0.0003203;86.3975;44.4342;52.4308;307.7181;2.8075E-5;1.06E-6;0;Iridium
